32P/Comas Sola,e,9.8751,55.2112,54.8440,4.527174,0.1023207,0.55860983,282.8869,03/29.0/2022,2000,g  6.5,8.0
# From MPEC 2013-O31
33P/Daniel,e,22.2964,66.3097,20.5020,4.086623,0.1193046,0.45163590,245.5796,03/29.0/2022,2000,g 10.0,12.0
# From  15, 452
35P/Herschel-Rigollet,e,65.256,356.721,28.958,28.5545,0.006459,0.9741075,0.000,01/17.2329/2092,2000,g  9.0,4.0
# From MPEC 2022-ED3
36P/Whipple,e,9.9522,181.8441,200.9356,4.135207,0.1172083,0.26905607,78.0142,03/29.0/2022,2000,g  8.5,6.0
# From MPEC 2021-F20
37P/Forbes,e,8.9556,314.5644,330.1198,3.460932,0.1530786,0.53348504,218.1169,03/29.0/2022,2000,g 13.8,4.0
# From MPEC 2018-S50
38P/Stephan-Oterma,e,18.3729,77.9398,359.4994,11.23614,0.0261685,0.85915027,32.2850,03/29.0/2022,2000,g  3.5,12.0
# From MPEC 2022-A21
39P/Oterma,e,1.5520,298.8203,97.4868,7.351944,0.0494425,0.22202320,338.5119,03/29.0/2022,2000,g  7.0,6.0
# From MPC100283
40P/Vaisala,e,11.4692,133.7772,47.3871,4.953544,0.0893985,0.62976942,241.1810,03/29.0/2022,2000,g  5.5,12.0
# From MPC105240
41P/Tuttle-Giacobini-Kresak,e,9.2208,140.9891,62.2205,3.088146,0.1816173,0.65997063,329.4129,03/29.0/2022,2000,g 10.0,16.0
# From MPC 94283
42P/Neujmin,e,3.9914,150.1751,147.2330,4.873296,0.0916157,0.58506523,232.9426,03/29.0/2022,2000,g 13.0,6.0
# From MPEC 2022-C56
43P/Wolf-Harrington,e,9.3343,244.0841,224.1141,4.317848,0.1098507,0.43537431,225.2463,03/29.0/2022,2000,g  8.0,6.0
# From MPEC 2021-TD0
44P/Reinmuth,e,5.8964,286.4731,58.0888,3.692264,0.1389200,0.42781017,356.4864,03/29.0/2022,2000,g  8.3,6.0
# From MPC103849
45P/Honda-Mrkos-Pajdusakova,e,4.3226,87.7033,327.9071,3.052946,0.1847674,0.81749187,354.9100,03/29.0/2022,2000,g 13.5,8.0
# From MPEC 2021-O56
46P/Wirtanen,e,11.7461,82.1573,356.3305,3.091859,0.1812903,0.65845341,218.0909,03/29.0/2022,2000,g 14.0,6.0
# From MPEC 2021-S45
47P/Ashbrook-Jackson,e,13.0411,356.9213,357.6816,4.123279,0.1177172,0.31858818,206.0365,03/29.0/2022,2000,g 12.5,4.0
# From MPEC 2021-F20
48P/Johnson,e,12.2037,110.1146,216.6951,3.501048,0.1504551,0.42735684,199.1759,03/29.0/2022,2000,g 12.4,4.0
# From MPEC 2021-F20
49P/Arend-Rigaux,e,19.0471,118.7953,332.9269,3.569713,0.1461350,0.59830051,197.8843,03/29.0/2022,2000,g 13.4,4.0
# From MPEC 2015-S97
50P/Arend,e,19.1006,355.1779,49.3178,4.088208,0.1192352,0.52931554,267.4691,03/29.0/2022,2000,g  9.5,6.0
# From NK 3014
51P-A/Harrington,e,5.4261,83.6755,269.2672,3.708036,0.1380347,0.54354288,333.9198,03/29.0/2022,2000,g 10.0,8.0
# From NK 3013
51P-D/Harrington,e,5.4268,83.6604,269.3055,3.707081,0.1380880,0.54347632,334.2071,03/29.0/2022,2000,g 16.0,8.0
# From MPEC 2022-F14
52P/Harrington-Abell,e,10.2315,336.8379,139.5880,3.864830,0.1297205,0.54016588,22.6771,03/29.0/2022,2000,g 13.5,6.0
# From MPC100283
53P/Van Biesbroeck,e,6.6095,148.8110,134.5043,5.429522,0.0779043,0.55130600,168.1714,03/29.0/2022,2000,g  7.7,4.8
# From MPC 89011
54P/de Vico-Swift-NEAT,e,6.0647,358.8173,1.8184,3.790348,0.1335628,0.42629573,241.1790,03/29.0/2022,2000,g  9.0,4.0
# From MPC 31070
55P/Tempel-Tuttle,e,162.4663,235.4118,172.4854,10.35662,0.0295717,0.90576861,261.2765,03/29.0/2022,2000,g  9.0,4.0
# From MPC101100
56P/Slaughter-Burnham,e,8.1612,345.9953,43.9903,5.067849,0.0863910,0.50803777,179.4474,03/29.0/2022,2000,g  8.5,6.0
# From MPEC 2022-C56
57P/duToit-Neujmin-Delporte,e,2.8518,188.7675,115.2364,3.446977,0.1540091,0.50105741,25.0471,03/29.0/2022,2000,g 12.5,6.0
# From MPEC 2021-O56
58P/Jackson-Neujmin,e,13.1088,159.0746,200.5066,4.086569,0.1193069,0.66281151,79.9751,03/29.0/2022,2000,g 15.5,6.0
# From MPEC 2021-F20
59P/Kearns-Kwee,e,9.3418,312.8209,127.5078,4.485265,0.1037581,0.47552346,133.7759,03/29.0/2022,2000,g  7.0,6.0
# From MPEC 2021-F20
60P/Tsuchinshan,e,3.5832,267.4893,216.9875,3.524910,0.1489299,0.53390925,179.7467,03/29.0/2022,2000,g 11.5,6.0
# From MPEC 2015-Q71
61P/Shajn-Schaldach,e,5.9995,162.9685,221.7313,3.690709,0.1390079,0.42416428,330.9473,03/29.0/2022,2000,g  6.0,10.0
# From MPC109147
62P/Tsuchinshan,e,4.7382,68.8938,47.3184,3.362875,0.1598225,0.62633053,258.4183,03/29.0/2022,2000,g  8.0,10.0
# From MPC 84320
63P/Wild,e,19.7297,358.0191,169.0486,5.608582,0.0742035,0.64906344,243.8321,03/29.0/2022,2000,g 10.5,6.0
# From MPEC 2021-F20
64P/Swift-Gehrels,e,8.9492,299.9656,97.0918,4.453050,0.1048861,0.68832570,130.0895,03/29.0/2022,2000,g 13.4,4.0
# From MPEC 2022-ED3
65P/Gunn,e,9.1771,62.0032,213.9046,3.887402,0.1285923,0.24894373,208.8174,03/29.0/2022,2000,g  5.0,6.0
# From MPEC 2021-F20
66P/duToit,e,18.6424,21.7981,257.4438,6.068797,0.0659250,0.78635992,92.9725,03/29.0/2022,2000,g 15.0,4.0
# From MPEC 2022-F14
67P/Churyumov-Gerasimenko,e,3.8716,36.3321,22.1403,3.456133,0.1533975,0.64971137,22.5389,03/29.0/2022,2000,g 11.0,4.0
# From MPC 75716
68P/Klemola,e,11.1111,175.0490,153.1958,4.956371,0.0893220,0.63754174,77.7856,03/29.0/2022,2000,g 10.0,4.0
# From MPC114607
69P/Taylor,e,22.0378,104.8161,343.4070,3.885944,0.1286646,0.41338709,142.4137,03/29.0/2022,2000,g  9.5,12.0
# From MPEC 2022-F14
70P/Kojima,e,6.5978,119.2674,1.8237,3.678234,0.1397157,0.45382212,20.3841,03/29.0/2022,2000,g 11.0,6.0
# From MPEC 2022-F14
71P/Clark,e,9.4375,59.3996,209.0605,3.139381,0.1771895,0.49393952,306.8813,03/29.0/2022,2000,g  9.8,6.0
# From MPC 89011
72P/Denning-Fujikawa,e,10.9469,26.6974,346.7085,4.309350,0.1101759,0.81860274,311.0926,03/29.0/2022,2000,g 17.5,10.0
# From MPEC 2022-F14
73P/Schwassmann-Wachmann,e,11.2276,69.6125,199.4839,3.092633,0.1812223,0.68539016,332.8549,03/29.0/2022,2000,g 11.5,6.0
# From MPC106348
73P-T/Schwassmann-Wachmann,e,11.2296,69.6156,199.4633,3.094107,0.1810927,0.68558934,332.6188,03/29.0/2022,2000,g 11.5,6.0
# From MPEC 2021-UA9
74P/Smirnova-Chernykh,e,6.0160,61.4829,127.1433,4.462396,0.1045567,0.12298169,145.7867,03/29.0/2022,2000,g  5.0,6.0
# From MPEC 2021-F20
76P/West-Kohoutek-Ikemura,e,30.4682,84.1082,359.9448,3.471558,0.1523763,0.53834399,134.8390,03/29.0/2022,2000,g 15.5,4.0
# From MPEC 2022-ED3
77P/Longmore,e,24.3183,14.7713,196.7824,3.623182,0.1429120,0.35189405,307.0847,03/29.0/2022,2000,g  7.0,8.0
# From MPEC 2021-O56
78P/Gehrels,e,6.2542,210.5150,192.6327,3.737974,0.1363797,0.46248358,148.7486,03/29.0/2022,2000,g  5.5,8.0
# From MPC 94675
79P/du Toit-Hartley,e,3.1480,280.5299,281.7803,2.943220,0.1951956,0.61891313,252.5428,03/29.0/2022,2000,g 16.0,4.0
# From MPEC 2014-P41
80P/Peters-Hartley,e,29.9230,259.8042,339.2458,4.024592,0.1220735,0.59866667,328.8880,03/29.0/2022,2000,g  9.0,4.0
# From MPEC 2022-F14
81P/Wild,e,3.2366,136.0991,41.6500,3.452965,0.1536087,0.53712708,319.8073,03/29.0/2022,2000,g  7.0,6.0
# From MPC133426
82P/Gehrels,e,1.1290,239.3125,226.5008,4.134245,0.1172492,0.12178696,161.1392,03/29.0/2022,2000,g 15.0,4.0
# From MPEC 2020-FB5
84P/Giclas,e,7.5508,108.1627,281.5913,3.549592,0.1473793,0.51590822,97.7114,03/29.0/2022,2000,g  9.5,8.0
# From MPC109147
86P/Wild,e,15.4753,72.3558,179.4099,3.601063,0.1442308,0.37222079,7.1230,03/29.0/2022,2000,g 11.0,6.0
# From MPEC 2020-SI8
87P/Bus,e,2.6815,181.0815,26.4085,3.458261,0.1532560,0.39495866,104.6509,03/29.0/2022,2000,g  7.2,10.0
# From MPEC 2022-ED3
88P/Howell,e,4.3829,56.6779,235.9181,3.105459,0.1801007,0.56403972,98.7865,03/29.0/2022,2000,g 11.0,6.0
# From MPC100283
89P/Russell,e,12.0701,41.3586,250.3821,3.753874,0.1355141,0.40837205,261.2977,03/29.0/2022,2000,g 11.5,6.0
# From MPC107051
90P/Gehrels,e,9.6503,13.2048,29.0526,6.051619,0.0662059,0.51060804,115.3750,03/29.0/2022,2000,g  8.5,6.0
# From MPEC 2021-S45
91P/Russell,e,14.0781,247.5340,355.3131,3.902425,0.1278505,0.33262844,64.3590,03/29.0/2022,2000,g  7.5,6.0
# From MPEC 2014-J58
92P/Sanguin,e,19.5054,181.3628,163.7819,5.343608,0.0797907,0.66104920,205.8524,03/29.0/2022,2000,g 12.0,6.0
# From NK 2707
93P/Lovas,e,12.2035,339.6469,74.8095,4.381371,0.1074704,0.61309639,199.1776,03/29.0/2022,2000,g  9.0,4.0
# From MPEC 2021-Y10
94P/Russell,e,6.1881,70.8580,92.4462,3.507870,0.1500164,0.36513822,297.2623,03/29.0/2022,2000,g  9.0,6.0
# From MPC 75717
95P/Chiron,e,6.9237,209.2921,339.5961,13.70836,0.0194190,0.37651844,186.1475,03/29.0/2022,2000,g  6.5,2.0
# From MPEC 2017-T14
96P/Machholz,e,57.5125,93.9609,14.7495,3.029381,0.1869275,0.96157407,302.4066,03/29.0/2022,2000,g  9.0,4.0
# From MPEC 2022-C56
97P/Metcalf-Brewington,e,17.9521,184.0782,229.9676,4.759187,0.0949303,0.45994684,3.9358,03/29.0/2022,2000,g  5.5,6.0
# From MPEC 2021-W31
98P/Takamizawa,e,10.5602,114.6924,157.8397,3.795848,0.1332726,0.56226559,59.7367,03/29.0/2022,2000,g  9.0,8.0
# From MPEC 2022-F14
99P/Kowal,e,4.3396,28.1015,174.9348,6.106033,0.0653229,0.22926897,359.0424,03/29.0/2022,2000,g  4.5,6.0
# From MPEC 2022-F14
100P/Hartley,e,25.5650,37.6885,181.9755,3.432636,0.1549753,0.41222903,339.0843,03/29.0/2022,2000,g  9.0,8.0
# From MPEC 2022-ED3
101P/Chernykh,e,5.0520,116.2213,277.7229,5.805902,0.0704530,0.59621190,56.7985,03/29.0/2022,2000,g 10.0,4.8
# From MPEC 2022-C56
102P/Shoemaker,e,25.8845,339.3656,20.5894,3.814439,0.1322994,0.45717492,56.9501,03/29.0/2022,2000,g  6.5,8.0
# From MPEC 2018-HA5
103P/Hartley,e,13.6073,219.7413,181.2853,3.475579,0.1521120,0.69354788,274.4201,03/29.0/2022,2000,g  8.5,8.0
# From MPEC 2022-F14
104P/Kowal,e,5.7011,207.2128,227.2505,3.205795,0.1717119,0.66528144,13.1152,03/29.0/2022,2000,g 16.0,4.0
# From MPC109147
105P/Singer Brewster,e,9.1689,192.4022,46.4741,3.468327,0.1525893,0.40909347,202.6650,03/29.0/2022,2000,g 11.5,6.0
# From MPEC 2022-F14
106P/Schuster,e,19.5359,48.8823,353.6836,3.763613,0.1349885,0.59381154,29.9955,03/29.0/2022,2000,g 14.0,4.8
# From MPEC 2015-M77
107P/Wilson-Harrington,e,2.7993,266.7790,95.4390,2.624798,0.2317715,0.63171554,325.5434,03/29.0/2022,2000,g  9.0,4.0
# From MPEC 2022-F14
108P/Ciffreo,e,11.4362,50.2884,354.4348,3.738951,0.1363262,0.55593701,27.2493,03/29.0/2022,2000,g  8.0,12.0
# From  105, 420
109P/Swift-Tuttle,e,113.9305,139.0833,152.9723,26.16918,0.0073624,0.96268616,78.8021,03/29.0/2022,2000,g  4.0,6.0
# From MPEC 2022-F14
110P/Hartley,e,11.7059,287.5346,167.4485,3.603057,0.1441111,0.31843518,23.3004,03/29.0/2022,2000,g  1.0,12.0
# From MPC 75718
